{"type": "FeatureCollection", "features": [ {"type": "Feature", "properties": {"norad_id": 66828, "name": "STARLINK-35982", "group": "last-30-days", "lat": 60.47093518585812, "lon": -142.78159809776497, "alt_km": 404.8923479531859, "timestamp": "2025-12-20T11:30:27.106258+00:00", "meta": {"OBJECT_NAME": "STARLINK-35982", "OBJECT_ID": "2025-280H", "EPOCH": "2025-12-20T04:00:00.999072", "MEAN_MOTION": 15.52514354, "ECCENTRICITY": 0.0003096, "INCLINATION": 69.9992, "RA_OF_ASC_NODE": 178.0557, "ARG_OF_PERICENTER": 267.2773, "MEAN_ANOMALY": 212.8294, "EPHEMERIS_TYPE": 0, "CLASSIFICATION_TYPE": "U", "NORAD_CAT_ID": 66828, "ELEMENT_SET_NO": 999, "REV_AT_EPOCH": 409, "BSTAR": 3.7413e-05, "MEAN_MOTION_DOT": 2.134e-05, "MEAN_MOTION_DDOT": 0}, "tle": {"line1": "1 66828U 25280H   25354.16667823  .00002134  00000+0  37413-4 0  9996", "line2": "2 66828  69.9992 178.0557 0003096 267.2773 212.8294 15.52514354  4097"}}, "geometry": {"type": "Point", "coordinates": [-142.78159809776497, 60.47093518585812]}}, {"type": "Feature", "properties": {"norad_id": 66829, "name": "STARLINK-36084", "group": "last-30-days", "lat": 59.013825971071896, "lon": -145.45893636190803, "alt_km": 405.0178570593989, "timestamp": "2025-12-20T11:30:27.106271+00:00", "meta": {"OBJECT_NAME": "STARLINK-36084", "OBJECT_ID": "2025-280J", "EPOCH": "2025-12-20T04:00:00.999072", "MEAN_MOTION": 15.52479351, "ECCENTRICITY": 0.0002993, "INCLINATION": 69.9993, "RA_OF_ASC_NODE": 178.0579, "ARG_OF_PERICENTER": 271.3446, "MEAN_ANOMALY": 206.8162, "EPHEMERIS_TYPE": 0, "CLASSIFICATION_TYPE": "U", "NORAD_CAT_ID": 66829, "ELEMENT_SET_NO": 999, "REV_AT_EPOCH": 393, "BSTAR": 1.8877e-05, "MEAN_MOTION_DOT": 9.92e-06, "MEAN_MOTION_DDOT": 0}, "tle": {"line1": "1 66829U 25280J   25354.16667823  .00000992  00000+0  18877-4 0  9990", "line2": "2 66829  69.9993 178.0579 0002993 271.3446 206.8162 15.52479351  3937"}}, "geometry": {"type": "Point", "coordinates": [-145.45893636190803, 59.013825971071896]}}, {"type": "Feature", "properties": {"norad_id": 66830, "name": "STARLINK-35881", "group": "last-30-days", "lat": 61.82408179892401, "lon": -139.95975325867082, "alt_km": 404.726788754715, "timestamp": "2025-12-20T11:30:27.106284+00:00", "meta": {"OBJECT_NAME": "STARLINK-35881", "OBJECT_ID": "2025-280K", "EPOCH": "2025-12-20T04:00:00.999072", "MEAN_MOTION": 15.52512809, "ECCENTRICITY": 0.0003034, "INCLINATION": 69.9992, "RA_OF_ASC_NODE": 178.0527, "ARG_OF_PERICENTER": 267.4999, "MEAN_ANOMALY": 214.5269, "EPHEMERIS_TYPE": 0, "CLASSIFICATION_TYPE": "U", "NORAD_CAT_ID": 66830, "ELEMENT_SET_NO": 999, "REV_AT_EPOCH": 409, "BSTAR": 3.0049e-05, "MEAN_MOTION_DOT": 1.681e-05, "MEAN_MOTION_DDOT": 0}, "tle": {"line1": "1 66830U 25280K   25354.16667823  .00001681  00000+0  30049-4 0  9993", "line2": "2 66830  69.9992 178.0527 0003034 267.4999 214.5269 15.52512809  4095"}}, "geometry": {"type": "Point", "coordinates": [-139.95975325867082, 61.82408179892401]}}, {"type": "Feature", "properties": {"norad_id": 66831, "name": "STARLINK-35788", "group": "last-30-days", "lat": 63.11037555775663, "lon": -136.88856943104824, "alt_km": 404.6601384032874, "timestamp": "2025-12-20T11:30:27.106294+00:00", "meta": {"OBJECT_NAME": "STARLINK-35788", "OBJECT_ID": "2025-280L", "EPOCH": "2025-12-20T04:00:00.999072", "MEAN_MOTION": 15.52514621, "ECCENTRICITY": 0.0003085, "INCLINATION": 69.9989, "RA_OF_ASC_NODE": 178.0532, "ARG_OF_PERICENTER": 266.1752, "MEAN_ANOMALY": 217.7652, "EPHEMERIS_TYPE": 0, "CLASSIFICATION_TYPE": "U", "NORAD_CAT_ID": 66831, "ELEMENT_SET_NO": 999, "REV_AT_EPOCH": 409, "BSTAR": -6.8519e-05, "MEAN_MOTION_DOT": -4.38e-05, "MEAN_MOTION_DDOT": 0}, "tle": {"line1": "1 66831U 25280L   25354.16667823 -.00004380  00000+0 -68519-4 0  9998", "line2": "2 66831  69.9989 178.0532 0003085 266.1752 217.7652 15.52514621  4092"}}, "geometry": {"type": "Point", "coordinates": [-136.88856943104824, 63.11037555775663]}}, {"type": "Feature", "properties": {"norad_id": 66832, "name": "STARLINK-35768", "group": "last-30-days", "lat": 64.3303370475368, "lon": -133.5286223689176, "alt_km": 404.6071370738846, "timestamp": "2025-12-20T11:30:27.106306+00:00", "meta": {"OBJECT_NAME": "STARLINK-35768", "OBJECT_ID": "2025-280M", "EPOCH": "2025-12-20T04:00:00.999072", "MEAN_MOTION": 15.52510649, "ECCENTRICITY": 0.0003158, "INCLINATION": 69.9991, "RA_OF_ASC_NODE": 178.0501, "ARG_OF_PERICENTER": 267.0945, "MEAN_ANOMALY": 218.7726, "EPHEMERIS_TYPE": 0, "CLASSIFICATION_TYPE": "U", "NORAD_CAT_ID": 66832, "ELEMENT_SET_NO": 999, "REV_AT_EPOCH": 409, "BSTAR": -0.00010321, "MEAN_MOTION_DOT": -6.51e-05, "MEAN_MOTION_DDOT": 0}, "tle": {"line1": "1 66832U 25280M   25354.16667823 -.00006510  00000+0 -10321-3 0  9993", "line2": "2 66832  69.9991 178.0501 0003158 267.0945 218.7726 15.52510649  4096"}}, "geometry": {"type": "Point", "coordinates": [-133.5286223689176, 64.3303370475368]}}, {"type": "Feature", "properties": {"norad_id": 66833, "name": "STARLINK-35858", "group": "last-30-days", "lat": 65.4594956805027, "lon": -129.89050043323334, "alt_km": 404.46356396110605, "timestamp": "2025-12-20T11:30:27.106316+00:00", "meta": {"OBJECT_NAME": "STARLINK-35858", "OBJECT_ID": "2025-280N", "EPOCH": "2025-12-20T04:00:00.999072", "MEAN_MOTION": 15.5251482, "ECCENTRICITY": 0.0003115, "INCLINATION": 69.999, "RA_OF_ASC_NODE": 178.0472, "ARG_OF_PERICENTER": 267.1299, "MEAN_ANOMALY": 220.6422, "EPHEMERIS_TYPE": 0, "CLASSIFICATION_TYPE": "U", "NORAD_CAT_ID": 66833, "ELEMENT_SET_NO": 999, "REV_AT_EPOCH": 409, "BSTAR": -5.2132e-05, "MEAN_MOTION_DOT": -3.373e-05, "MEAN_MOTION_DDOT": 0}, "tle": {"line1": "1 66833U 25280N   25354.16667823 -.00003373  00000+0 -52132-4 0  9995", "line2": "2 66833  69.9990 178.0472 0003115 267.1299 220.6422 15.52514820  4099"}}, "geometry": {"type": "Point", "coordinates": [-129.89050043323334, 65.4594956805027]}}, {"type": "Feature", "properties": {"norad_id": 66834, "name": "STARLINK-35840", "group": "last-30-days", "lat": 66.47937736732936, "lon": -125.99962777370592, "alt_km": 404.3822021078304, "timestamp": "2025-12-20T11:30:27.106326+00:00", "meta": {"OBJECT_NAME": "STARLINK-35840", "OBJECT_ID": "2025-280P", "EPOCH": "2025-12-20T04:00:00.999072", "MEAN_MOTION": 15.52516136, "ECCENTRICITY": 0.0003103, "INCLINATION": 69.9993, "RA_OF_ASC_NODE": 178.0444, "ARG_OF_PERICENTER": 265.9581, "MEAN_ANOMALY": 223.6975, "EPHEMERIS_TYPE": 0, "CLASSIFICATION_TYPE": "U", "NORAD_CAT_ID": 66834, "ELEMENT_SET_NO": 999, "REV_AT_EPOCH": 409, "BSTAR": -0.00013177, "MEAN_MOTION_DOT": -8.264e-05, "MEAN_MOTION_DDOT": 0}, "tle": {"line1": "1 66834U 25280P   25354.16667823 -.00008264  00000+0 -13177-3 0  9995", "line2": "2 66834  69.9993 178.0444 0003103 265.9581 223.6975 15.52516136  4097"}}, "geometry": {"type": "Point", "coordinates": [-125.99962777370592, 66.47937736732936]}}, {"type": "Feature", "properties": {"norad_id": 66835, "name": "STARLINK-35890", "group": "last-30-days", "lat": 67.41318957537875, "lon": -121.6960585447766, "alt_km": 404.2186332629344, "timestamp": "2025-12-20T11:30:27.106336+00:00", "meta": {"OBJECT_NAME": "STARLINK-35890", "OBJECT_ID": "2025-280Q", "EPOCH": "2025-12-20T04:00:00.999072", "MEAN_MOTION": 15.52519822, "ECCENTRICITY": 0.0003004, "INCLINATION": 69.9993, "RA_OF_ASC_NODE": 178.043, "ARG_OF_PERICENTER": 267.9698, "MEAN_ANOMALY": 223.6048, "EPHEMERIS_TYPE": 0, "CLASSIFICATION_TYPE": "U", "NORAD_CAT_ID": 66835, "ELEMENT_SET_NO": 999, "REV_AT_EPOCH": 409, "BSTAR": -0.00013168, "MEAN_MOTION_DOT": -8.26e-05, "MEAN_MOTION_DDOT": 0}, "tle": {"line1": "1 66835U 25280Q   25354.16667823 -.00008260  00000+0 -13168-3 0  9992", "line2": "2 66835  69.9993 178.0430 0003004 267.9698 223.6048 15.52519822  4090"}}, "geometry": {"type": "Point", "coordinates": [-121.6960585447766, 67.41318957537875]}}, {"type": "Feature", "properties": {"norad_id": 66836, "name": "STARLINK-35838", "group": "last-30-days", "lat": 68.2290600691924, "lon": -117.03189476522404, "alt_km": 404.1529567505513, "timestamp": "2025-12-20T11:30:27.106346+00:00", "meta": {"OBJECT_NAME": "STARLINK-35838", "OBJECT_ID": "2025-280R", "EPOCH": "2025-12-20T04:00:00.999072", "MEAN_MOTION": 15.52515311, "ECCENTRICITY": 0.0002993, "INCLINATION": 69.9995, "RA_OF_ASC_NODE": 178.04, "ARG_OF_PERICENTER": 267.0651, "MEAN_ANOMALY": 226.4516, "EPHEMERIS_TYPE": 0, "CLASSIFICATION_TYPE": "U", "NORAD_CAT_ID": 66836, "ELEMENT_SET_NO": 999, "REV_AT_EPOCH": 409, "BSTAR": -3.6097e-05, "MEAN_MOTION_DOT": -2.387e-05, "MEAN_MOTION_DDOT": 0}, "tle": {"line1": "1 66836U 25280R   25354.16667823 -.00002387  00000+0 -36097-4 0  9994", "line2": "2 66836  69.9995 178.0400 0002993 267.0651 226.4516 15.52515311  4096"}}, "geometry": {"type": "Point", "coordinates": [-117.03189476522404, 68.2290600691924]}}, {"type": "Feature", "properties": {"norad_id": 66837, "name": "STARLINK-35729", "group": "last-30-days", "lat": 68.9020356043548, "lon": -112.07484219075504, "alt_km": 404.4218970025786, "timestamp": "2025-12-20T11:30:27.106357+00:00", "meta": {"OBJECT_NAME": "STARLINK-35729", "OBJECT_ID": "2025-280S", "EPOCH": "2025-12-20T04:00:00.999072", "MEAN_MOTION": 15.52509174, "ECCENTRICITY": 0.0003469, "INCLINATION": 69.9995, "RA_OF_ASC_NODE": 178.0378, "ARG_OF_PERICENTER": 272.2712, "MEAN_ANOMALY": 223.1793, "EPHEMERIS_TYPE": 0, "CLASSIFICATION_TYPE": "U", "NORAD_CAT_ID": 66837, "ELEMENT_SET_NO": 999, "REV_AT_EPOCH": 409, "BSTAR": -6.7377e-05, "MEAN_MOTION_DOT": -4.309e-05, "MEAN_MOTION_DDOT": 0}, "tle": {"line1": "1 66837U 25280S   25354.16667823 -.00004309  00000+0 -67377-4 0  9996", "line2": "2 66837  69.9995 178.0378 0003469 272.2712 223.1793 15.52509174  4097"}}, "geometry": {"type": "Point", "coordinates": [-112.07484219075504, 68.9020356043548]}}]}